[{"OBJECT_NAME":"CORVUS BC2","OBJECT_ID":"2017-042X","EPOCH":"2026-03-09T22:14:39.055488","MEAN_MOTION":15.05610206,"ECCENTRICITY":0.00145863,"INCLINATION":97.3955,"RA_OF_ASC_NODE":234.2405,"ARG_OF_PERICENTER":92.385,"MEAN_ANOMALY":267.9047,"EPHEMERIS_TYPE":0,"CLASSIFICATION_TYPE":"U","NORAD_CAT_ID":42846,"ELEMENT_SET_NO":999,"REV_AT_EPOCH":47212,"BSTAR":0.00034626467,"MEAN_MOTION_DOT":4.947e-5,"MEAN_MOTION_DDOT":0},{"OBJECT_NAME":"STARLINK-5657","OBJECT_ID":"2023-013M","EPOCH":"2026-03-09T12:42:54.429696","MEAN_MOTION":15.02533716,"ECCENTRICITY":0.0001328,"INCLINATION":43.0046,"RA_OF_ASC_NODE":301.3502,"ARG_OF_PERICENTER":265.2416,"MEAN_ANOMALY":94.8275,"EPHEMERIS_TYPE":0,"CLASSIFICATION_TYPE":"U","NORAD_CAT_ID":55342,"ELEMENT_SET_NO":999,"REV_AT_EPOCH":17168,"BSTAR":6.580205e-6,"MEAN_MOTION_DOT":-1.15e-6,"MEAN_MOTION_DDOT":0}]
